M2 PATHFINDER           
1 45727U 20037E   26197.10661167  .00000599  00000+0  46975-4 0  9997
2 45727  97.8141  28.6655 0012835  59.7504 300.4991 15.04792666329846
NETSAT-4                
1 46504U 20068U   26197.02313080  .00010507  00000+0  22656-3 0  9993
2 46504  97.8601 207.6014 0004856 190.4966 169.6181 15.44774366320228
NETSAT-3                
1 46505U 20068V   26196.98631039  .00010678  00000+0  23934-3 0  9994
2 46505  97.8652 205.7431 0003928 207.3174 152.7867 15.43625105320123
NETSAT-1                
1 46506U 20068W   26196.94929927  .00006801  00000+0  20129-3 0  9993
2 46506  97.8751 199.6882 0002502 257.3559 102.7403 15.35255548319719
NETSAT-2                
1 46507U 20068X   26197.15007720  .00013117  00000+0  26002-3 0  9990
2 46507  97.8611 207.7451 0002289 203.9822 156.1320 15.47189152320218
GREENCUBE (IO-117)      
1 53109U 22080E   26196.19885268 -.00000003  00000+0  00000+0 0  9993
2 53109  70.1411 288.5050 0009069 283.3508  76.6141  6.42583355 93867
SITRO-AIS 5 (KATYS)     
1 57176U 23091L   26197.17775796  .00005985  00000+0  20799-3 0  9991
2 57176  97.5044 261.3633 0010548   9.0325 351.1103 15.30076618168778
SITRO-AIS 6 (CHIRKIN)   
1 57192U 23091AC  26197.15905850  .00004779  00000+0  18598-3 0  9997
2 57192  97.5052 260.3074 0011070  13.2402 346.9124 15.26447314168705
SITRO-AIS 8 (ANOKHIN)   
1 57193U 23091AD  26197.14299358  .00008181  00000+0  25987-3 0  9997
2 57193  97.5041 263.0375 0009432   4.8039 355.3291 15.32873152168887
SITRO-AIS 7 (FARTUSHNIY)
1 57194U 23091AE  26197.16825814  .00004749  00000+0  18664-3 0  9992
2 57194  97.5048 260.1262 0011038  14.4898 345.6654 15.26121151168695
SITRO-AIS 10 (BURDAEV)  
1 57199U 23091AK  26197.17991233  .00010471  00000+0  26752-3 0  9993
2 57199  97.5067 268.4353 0004764 337.0560  23.0472 15.39650022169224
SITRO-AIS 9 (SHCHUKIN)  
1 57201U 23091AM  26197.15076487  .00011468  00000+0  29769-3 0  9998
2 57201  97.5066 268.1123 0005049 337.7377  22.3648 15.39134362169208
SITRO-AIS 12 (SMIRENNIY)
1 57204U 23091AQ  26197.13586644  .00011262  00000+0  28961-3 0  9995
2 57204  97.5079 268.5824 0004620 329.9006  30.1974 15.39430230169227
SITRO-AIS 11 (SHEFFER)  
1 57208U 23091AU  26197.14111461  .00011722  00000+0  29701-3 0  9995
2 57208  97.5078 268.8528 0004506 329.1668  30.9312 15.39874060169242
SITRO-AIS 25            
1 59066U 24039R   26197.18470012  .00001814  00000+0  14323-3 0  9991
2 59066  95.3891 255.0188 0142857 226.0197 132.9179 14.93646047129059
SITRO-AIS 26            
1 59067U 24039S   26197.19006944  .00001623  00000+0  12911-3 0  9991
2 59067  95.3892 254.9141 0143191 226.6219 132.3010 14.93437675129043
SITRO-AIS 27            
1 59068U 24039T   26197.21912078  .00001322  00000+0  10471-3 0  9994
2 59068  95.3897 255.2194 0142269 225.0273 133.9350 14.93861340129076
SITRO-AIS 28            
1 59071U 24039U   26197.19591593  .00001570  00000+0  12372-3 0  9997
2 59071  95.3895 255.2523 0142159 224.9598 134.0048 14.93896194129071
GRBBETA                 
1 60237U 24128C   26197.15489543  .00001617  00000+0  12110-3 0  9991
2 60237  61.9898 114.6191 0036924 140.8564 219.5211 15.06811859110632
OOV-CUBE (TUBSAT-30)    
1 60240U 24128F   26197.19853053  .00000923  00000+0  83086-4 0  9990
2 60240  61.9938 124.4033 0040980 140.2429 220.1678 15.02875959110470
ROBUSTA-3A (MEDITERRAN*)
1 60243U 24128J   26197.17047145  .00003687  00000+0  22319-3 0  9999
2 60243  61.9865 105.7246 0037997 133.9239 226.5003 15.11994772110806
LASARSAT                
1 62391U 24247Q   26197.09385022  .00020669  00000+0  39100-3 0  9992
2 62391  44.9739  99.5612 0007476 171.6523 188.4493 15.48082110 87798
CROCUBE                 
1 62394U 24247T   26197.11839025  .00024938  00000+0  43576-3 0  9990
2 62394  44.9721  96.2522 0007681 178.5471 181.5444 15.50241694 87834
FORESAIL-1 PRIME        
1 66778U 25276DS  26197.18239000  .00002180  00000+0  10760-3 0  9991
2 66778  97.4192 269.9251 0002808  42.1880 317.9571 15.18942774 34809
KNACKSAT-2              
1 67683U 98067XZ  26197.09018061  .00034521  00000+0  38453-3 0  9990
2 67683  51.6274 148.8130 0007936 330.8548  29.2002 15.62464930 24795
